ORBCOMM FM33            
1 25983U 99065D   24329.85238021  .00002928  00000+0  98636-3 0  9990
2 25983  45.0278 249.7302 0007909 105.6901 254.4821 14.38938319306621
ORBCOMM FM36            
1 25984U 99065E   24329.40873743  .00003247  00000+0  11321-2 0  9998
2 25984  45.0400 340.6093 0004742 326.5520  33.5028 14.37016178304958
ORBCOMM FM35            
1 25985U 99065F   24329.46146981  .00002180  00000+0  78826-3 0  9991
2 25985  45.0401 343.8952 0001415  70.2873 289.8127 14.36210453305348
ORBCOMM FM34            
1 25986U 99065G   24329.50249819  .00002600  00000+0  93021-3 0  9992
2 25986  45.0400 344.2392 0003488   1.5300 358.5559 14.36242347305468
ORBCOMM FM38            
1 33060U 08031A   24329.86252067  .00004672  00000+0  64415-3 0  9991
2 33060  48.4391 207.8410 0005861 235.6259 124.4102 14.79603587884472
ORBCOMM FM41            
1 33061U 08031B   24329.89922598  .00004463  00000+0  62180-3 0  9993
2 33061  48.4429 214.7864 0005014 222.1784 240.5626 14.79252125883972
ORBCOMM FM29            
1 33062U 08031C   24329.89083868  .00004920  00000+0  68203-3 0  9992
2 33062  48.4380 222.8251 0006659 221.7460 233.4249 14.79275190883880
ORBCOMM FM39            
1 33063U 08031D   24329.85166235  .00004332  00000+0  62169-3 0  9991
2 33063  48.4396 245.1872 0007458 197.9569 162.1083 14.78035215883556
