<?xml version="1.0" encoding="UTF-8"?>
<ndm xmlns:xsi="http://www.w3.org/2001/XMLSchema-instance" xsi:noNamespaceSchemaLocation="https://sanaregistry.org/r/ndmxml_unqualified/ndmxml-2.0.0-master-2.0.xsd">
<omm id="CCSDS_OMM_VERS" version="2.0">
<header><CREATION_DATE/><ORIGINATOR/></header><body><segment><metadata><OBJECT_NAME>ORBCOMM FM33</OBJECT_NAME><OBJECT_ID>1999-065D</OBJECT_ID><CENTER_NAME>EARTH</CENTER_NAME><REF_FRAME>TEME</REF_FRAME><TIME_SYSTEM>UTC</TIME_SYSTEM><MEAN_ELEMENT_THEORY>SGP4</MEAN_ELEMENT_THEORY></metadata><data><meanElements><EPOCH>2024-11-24T20:27:25.650144</EPOCH><MEAN_MOTION>14.38938319</MEAN_MOTION><ECCENTRICITY>.0007909</ECCENTRICITY><INCLINATION>45.0278</INCLINATION><RA_OF_ASC_NODE>249.7302</RA_OF_ASC_NODE><ARG_OF_PERICENTER>105.6901</ARG_OF_PERICENTER><MEAN_ANOMALY>254.4821</MEAN_ANOMALY></meanElements><tleParameters><EPHEMERIS_TYPE>0</EPHEMERIS_TYPE><CLASSIFICATION_TYPE>U</CLASSIFICATION_TYPE><NORAD_CAT_ID>25983</NORAD_CAT_ID><ELEMENT_SET_NO>999</ELEMENT_SET_NO><REV_AT_EPOCH>30662</REV_AT_EPOCH><BSTAR>.98636E-3</BSTAR><MEAN_MOTION_DOT>.2928E-4</MEAN_MOTION_DOT><MEAN_MOTION_DDOT>0</MEAN_MOTION_DDOT></tleParameters></data></segment></body></omm>
<omm id="CCSDS_OMM_VERS" version="2.0">
<header><CREATION_DATE/><ORIGINATOR/></header><body><segment><metadata><OBJECT_NAME>ORBCOMM FM36</OBJECT_NAME><OBJECT_ID>1999-065E</OBJECT_ID><CENTER_NAME>EARTH</CENTER_NAME><REF_FRAME>TEME</REF_FRAME><TIME_SYSTEM>UTC</TIME_SYSTEM><MEAN_ELEMENT_THEORY>SGP4</MEAN_ELEMENT_THEORY></metadata><data><meanElements><EPOCH>2024-11-24T09:48:34.913952</EPOCH><MEAN_MOTION>14.37016178</MEAN_MOTION><ECCENTRICITY>.0004742</ECCENTRICITY><INCLINATION>45.0400</INCLINATION><RA_OF_ASC_NODE>340.6093</RA_OF_ASC_NODE><ARG_OF_PERICENTER>326.5520</ARG_OF_PERICENTER><MEAN_ANOMALY>33.5028</MEAN_ANOMALY></meanElements><tleParameters><EPHEMERIS_TYPE>0</EPHEMERIS_TYPE><CLASSIFICATION_TYPE>U</CLASSIFICATION_TYPE><NORAD_CAT_ID>25984</NORAD_CAT_ID><ELEMENT_SET_NO>999</ELEMENT_SET_NO><REV_AT_EPOCH>30495</REV_AT_EPOCH><BSTAR>.11321E-2</BSTAR><MEAN_MOTION_DOT>.3247E-4</MEAN_MOTION_DOT><MEAN_MOTION_DDOT>0</MEAN_MOTION_DDOT></tleParameters></data></segment></body></omm>
<omm id="CCSDS_OMM_VERS" version="2.0">
<header><CREATION_DATE/><ORIGINATOR/></header><body><segment><metadata><OBJECT_NAME>ORBCOMM FM35</OBJECT_NAME><OBJECT_ID>1999-065F</OBJECT_ID><CENTER_NAME>EARTH</CENTER_NAME><REF_FRAME>TEME</REF_FRAME><TIME_SYSTEM>UTC</TIME_SYSTEM><MEAN_ELEMENT_THEORY>SGP4</MEAN_ELEMENT_THEORY></metadata><data><meanElements><EPOCH>2024-11-24T11:04:30.991584</EPOCH><MEAN_MOTION>14.36210453</MEAN_MOTION><ECCENTRICITY>.0001415</ECCENTRICITY><INCLINATION>45.0401</INCLINATION><RA_OF_ASC_NODE>343.8952</RA_OF_ASC_NODE><ARG_OF_PERICENTER>70.2873</ARG_OF_PERICENTER><MEAN_ANOMALY>289.8127</MEAN_ANOMALY></meanElements><tleParameters><EPHEMERIS_TYPE>0</EPHEMERIS_TYPE><CLASSIFICATION_TYPE>U</CLASSIFICATION_TYPE><NORAD_CAT_ID>25985</NORAD_CAT_ID><ELEMENT_SET_NO>999</ELEMENT_SET_NO><REV_AT_EPOCH>30534</REV_AT_EPOCH><BSTAR>.78826E-3</BSTAR><MEAN_MOTION_DOT>.218E-4</MEAN_MOTION_DOT><MEAN_MOTION_DDOT>0</MEAN_MOTION_DDOT></tleParameters></data></segment></body></omm>
<omm id="CCSDS_OMM_VERS" version="2.0">
<header><CREATION_DATE/><ORIGINATOR/></header><body><segment><metadata><OBJECT_NAME>ORBCOMM FM34</OBJECT_NAME><OBJECT_ID>1999-065G</OBJECT_ID><CENTER_NAME>EARTH</CENTER_NAME><REF_FRAME>TEME</REF_FRAME><TIME_SYSTEM>UTC</TIME_SYSTEM><MEAN_ELEMENT_THEORY>SGP4</MEAN_ELEMENT_THEORY></metadata><data><meanElements><EPOCH>2024-11-24T12:03:35.843616</EPOCH><MEAN_MOTION>14.36242347</MEAN_MOTION><ECCENTRICITY>.0003488</ECCENTRICITY><INCLINATION>45.0400</INCLINATION><RA_OF_ASC_NODE>344.2392</RA_OF_ASC_NODE><ARG_OF_PERICENTER>1.5300</ARG_OF_PERICENTER><MEAN_ANOMALY>358.5559</MEAN_ANOMALY></meanElements><tleParameters><EPHEMERIS_TYPE>0</EPHEMERIS_TYPE><CLASSIFICATION_TYPE>U</CLASSIFICATION_TYPE><NORAD_CAT_ID>25986</NORAD_CAT_ID><ELEMENT_SET_NO>999</ELEMENT_SET_NO><REV_AT_EPOCH>30546</REV_AT_EPOCH><BSTAR>.93021E-3</BSTAR><MEAN_MOTION_DOT>.26E-4</MEAN_MOTION_DOT><MEAN_MOTION_DDOT>0</MEAN_MOTION_DDOT></tleParameters></data></segment></body></omm>
<omm id="CCSDS_OMM_VERS" version="2.0">
<header><CREATION_DATE/><ORIGINATOR/></header><body><segment><metadata><OBJECT_NAME>ORBCOMM FM38</OBJECT_NAME><OBJECT_ID>2008-031A</OBJECT_ID><CENTER_NAME>EARTH</CENTER_NAME><REF_FRAME>TEME</REF_FRAME><TIME_SYSTEM>UTC</TIME_SYSTEM><MEAN_ELEMENT_THEORY>SGP4</MEAN_ELEMENT_THEORY></metadata><data><meanElements><EPOCH>2024-11-24T20:42:01.785888</EPOCH><MEAN_MOTION>14.79603587</MEAN_MOTION><ECCENTRICITY>.0005861</ECCENTRICITY><INCLINATION>48.4391</INCLINATION><RA_OF_ASC_NODE>207.8410</RA_OF_ASC_NODE><ARG_OF_PERICENTER>235.6259</ARG_OF_PERICENTER><MEAN_ANOMALY>124.4102</MEAN_ANOMALY></meanElements><tleParameters><EPHEMERIS_TYPE>0</EPHEMERIS_TYPE><CLASSIFICATION_TYPE>U</CLASSIFICATION_TYPE><NORAD_CAT_ID>33060</NORAD_CAT_ID><ELEMENT_SET_NO>999</ELEMENT_SET_NO><REV_AT_EPOCH>88447</REV_AT_EPOCH><BSTAR>.64415E-3</BSTAR><MEAN_MOTION_DOT>.4672E-4</MEAN_MOTION_DOT><MEAN_MOTION_DDOT>0</MEAN_MOTION_DDOT></tleParameters></data></segment></body></omm>
<omm id="CCSDS_OMM_VERS" version="2.0">
<header><CREATION_DATE/><ORIGINATOR/></header><body><segment><metadata><OBJECT_NAME>ORBCOMM FM41</OBJECT_NAME><OBJECT_ID>2008-031B</OBJECT_ID><CENTER_NAME>EARTH</CENTER_NAME><REF_FRAME>TEME</REF_FRAME><TIME_SYSTEM>UTC</TIME_SYSTEM><MEAN_ELEMENT_THEORY>SGP4</MEAN_ELEMENT_THEORY></metadata><data><meanElements><EPOCH>2024-11-24T21:34:53.124672</EPOCH><MEAN_MOTION>14.79252125</MEAN_MOTION><ECCENTRICITY>.0005014</ECCENTRICITY><INCLINATION>48.4429</INCLINATION><RA_OF_ASC_NODE>214.7864</RA_OF_ASC_NODE><ARG_OF_PERICENTER>222.1784</ARG_OF_PERICENTER><MEAN_ANOMALY>240.5626</MEAN_ANOMALY></meanElements><tleParameters><EPHEMERIS_TYPE>0</EPHEMERIS_TYPE><CLASSIFICATION_TYPE>U</CLASSIFICATION_TYPE><NORAD_CAT_ID>33061</NORAD_CAT_ID><ELEMENT_SET_NO>999</ELEMENT_SET_NO><REV_AT_EPOCH>88397</REV_AT_EPOCH><BSTAR>.6218E-3</BSTAR><MEAN_MOTION_DOT>.4463E-4</MEAN_MOTION_DOT><MEAN_MOTION_DDOT>0</MEAN_MOTION_DDOT></tleParameters></data></segment></body></omm>
<omm id="CCSDS_OMM_VERS" version="2.0">
<header><CREATION_DATE/><ORIGINATOR/></header><body><segment><metadata><OBJECT_NAME>ORBCOMM FM29</OBJECT_NAME><OBJECT_ID>2008-031C</OBJECT_ID><CENTER_NAME>EARTH</CENTER_NAME><REF_FRAME>TEME</REF_FRAME><TIME_SYSTEM>UTC</TIME_SYSTEM><MEAN_ELEMENT_THEORY>SGP4</MEAN_ELEMENT_THEORY></metadata><data><meanElements><EPOCH>2024-11-24T21:22:48.461952</EPOCH><MEAN_MOTION>14.79275190</MEAN_MOTION><ECCENTRICITY>.0006659</ECCENTRICITY><INCLINATION>48.4380</INCLINATION><RA_OF_ASC_NODE>222.8251</RA_OF_ASC_NODE><ARG_OF_PERICENTER>221.7460</ARG_OF_PERICENTER><MEAN_ANOMALY>233.4249</MEAN_ANOMALY></meanElements><tleParameters><EPHEMERIS_TYPE>0</EPHEMERIS_TYPE><CLASSIFICATION_TYPE>U</CLASSIFICATION_TYPE><NORAD_CAT_ID>33062</NORAD_CAT_ID><ELEMENT_SET_NO>999</ELEMENT_SET_NO><REV_AT_EPOCH>88388</REV_AT_EPOCH><BSTAR>.68203E-3</BSTAR><MEAN_MOTION_DOT>.492E-4</MEAN_MOTION_DOT><MEAN_MOTION_DDOT>0</MEAN_MOTION_DDOT></tleParameters></data></segment></body></omm>
<omm id="CCSDS_OMM_VERS" version="2.0">
<header><CREATION_DATE/><ORIGINATOR/></header><body><segment><metadata><OBJECT_NAME>ORBCOMM FM39</OBJECT_NAME><OBJECT_ID>2008-031D</OBJECT_ID><CENTER_NAME>EARTH</CENTER_NAME><REF_FRAME>TEME</REF_FRAME><TIME_SYSTEM>UTC</TIME_SYSTEM><MEAN_ELEMENT_THEORY>SGP4</MEAN_ELEMENT_THEORY></metadata><data><meanElements><EPOCH>2024-11-24T20:26:23.627040</EPOCH><MEAN_MOTION>14.78035215</MEAN_MOTION><ECCENTRICITY>.0007458</ECCENTRICITY><INCLINATION>48.4396</INCLINATION><RA_OF_ASC_NODE>245.1872</RA_OF_ASC_NODE><ARG_OF_PERICENTER>197.9569</ARG_OF_PERICENTER><MEAN_ANOMALY>162.1083</MEAN_ANOMALY></meanElements><tleParameters><EPHEMERIS_TYPE>0</EPHEMERIS_TYPE><CLASSIFICATION_TYPE>U</CLASSIFICATION_TYPE><NORAD_CAT_ID>33063</NORAD_CAT_ID><ELEMENT_SET_NO>999</ELEMENT_SET_NO><REV_AT_EPOCH>88355</REV_AT_EPOCH><BSTAR>.62169E-3</BSTAR><MEAN_MOTION_DOT>.4332E-4</MEAN_MOTION_DOT><MEAN_MOTION_DDOT>0</MEAN_MOTION_DDOT></tleParameters></data></segment></body></omm>

</ndm>
